[{"OBJECT_NAME":"STARLINK-33837","OBJECT_ID":"2025-071J","EPOCH":"2026-03-09T11:29:17.982240","MEAN_MOTION":15.30193046,"ECCENTRICITY":0.00013291,"INCLINATION":53.1575,"RA_OF_ASC_NODE":141.1847,"ARG_OF_PERICENTER":72.9359,"MEAN_ANOMALY":287.1787,"EPHEMERIS_TYPE":0,"CLASSIFICATION_TYPE":"U","NORAD_CAT_ID":63501,"ELEMENT_SET_NO":999,"REV_AT_EPOCH":5267,"BSTAR":0.00071147216,"MEAN_MOTION_DOT":0.00020767,"MEAN_MOTION_DDOT":0},{"OBJECT_NAME":"THORAD AGENA D DEB","OBJECT_ID":"1969-082CP","EPOCH":"2026-03-09T22:51:31.947840","MEAN_MOTION":15.31252047,"ECCENTRICITY":0.00108961,"INCLINATION":69.8927,"RA_OF_ASC_NODE":265.8646,"ARG_OF_PERICENTER":335.0972,"MEAN_ANOMALY":24.9676,"EPHEMERIS_TYPE":0,"CLASSIFICATION_TYPE":"U","NORAD_CAT_ID":4133,"ELEMENT_SET_NO":999,"REV_AT_EPOCH":97550,"BSTAR":0.0018489552,"MEAN_MOTION_DOT":0.00056347,"MEAN_MOTION_DDOT":0}]
